HST                     
1 20580U 90037B   26087.60243902  .00009067  00000+0  29759-3 0  9999
2 20580  28.4720 270.9560 0001679 347.9689  12.0867 15.29770791776213
POLAR                   
1 23802U 96013A   26086.39330447  .00000133  00000+0  00000+0 0  9994
2 23802  79.7729 227.9913 6387624 211.8630  85.0529  1.29845742143793
SWAS                    
1 25560U 98071A   26087.36117761  .00003737  00000+0  24219-3 0  9998
2 25560  69.8945  75.8625 0005612 344.6117  15.4875 15.09015523485079
CXO                     
1 25867U 99040B   26090.04236321  .00000780  00000+0  00000+0 0  9991
2 25867  54.9448 118.9145 7963177 310.7103   0.1107  0.37810947 17026
XMM-NEWTON              
1 25989U 99066A   26087.57047356  .00000058  00000+0  00000+0 0  9994
2 25989  64.8899 284.0244 4701722  66.3715   0.0623  0.50130084 22606
TERRA                   
1 25994U 99068A   26087.63646833  .00000436  00000+0  97816-4 0  9990
2 25994  97.9553 140.3437 0003569 111.9893  49.4323 14.61034278397848
CLUSTER II-FM7 (SAMBA)  
1 26410U 00041A   26087.80509244  .00002770  00000+0  00000+0 0  9997
2 26410 149.3509  37.9375 8950242 254.2071   0.2686  0.44808340 19947
CLUSTER II-FM8 (TANGO)  
1 26464U 00045B   26089.60558470  .00002560  00000+0  00000+0 0  9992
2 26464 149.6410  39.0046 8956751 255.1525   0.3931  0.44399863 19953
ODIN                    
1 26702U 01007A   26087.59092269  .00054911  00000+0  66585-3 0  9992
2 26702  97.4038 124.4339 0005034 100.4616 259.7208 15.60452712376783
TIMED                   
1 26998U 01055B   26087.58312241  .00001676  00000+0  15648-3 0  9990
2 26998  74.0688  37.2897 0002773 251.5104 108.5779 14.95083804318777
CORIOLIS                
1 27640U 03001A   26087.58464652  .00000143  00000+0  87565-4 0  9998
2 27640  98.7159  95.6925 0015161  85.7052 274.5857 14.19919968202781
SORCE                   
1 27651U 03004A   26087.16885975  .00003548  00000+0  26754-3 0  9996
2 27651  39.9926   3.7575 0017402 195.1511 164.8763 15.03234870259706
MOST                    
1 27843U 03031D   26087.53618111  .00000103  00000+0  67196-4 0  9996
2 27843  98.7080  96.3790 0010818 122.1150 238.1079 14.21304285179256
SCISAT 1                
1 27858U 03036A   26087.39017486  .00000775  00000+0  10384-3 0  9990
2 27858  73.9313 331.8684 0006154  48.6564 311.5141 14.81346723219489
SWIFT                   
1 28485U 04047A   26087.21606171  .00051322  00000+0  57307-3 0  9996
2 28485  20.5537  86.0328 0003144 260.3075  99.7015 15.60974860174169
HINODE (SOLAR-B)        
1 29479U 06041A   26087.58213381  .00000747  00000+0  13699-3 0  9994
2 29479  98.0608 104.9096 0017526 179.2725 180.8509 14.68503399 43047
SHIJIAN-6 02A (SJ-6 02A)
1 29505U 06046A   26087.59076124  .00008927  00000+0  46835-3 0  9998
2 29505  97.6465 128.0711 0004541  70.6841 289.4882 15.15976010 60057
