[{"OBJECT_NAME":"HST","OBJECT_ID":"1990-037B","EPOCH":"2026-03-28T14:27:30.731328","MEAN_MOTION":15.29770791,"ECCENTRICITY":0.00016798,"INCLINATION":28.472,"RA_OF_ASC_NODE":270.956,"ARG_OF_PERICENTER":347.9689,"MEAN_ANOMALY":12.0867,"EPHEMERIS_TYPE":0,"CLASSIFICATION_TYPE":"U","NORAD_CAT_ID":20580,"ELEMENT_SET_NO":999,"REV_AT_EPOCH":77621,"BSTAR":0.00029759061,"MEAN_MOTION_DOT":9.067e-5,"MEAN_MOTION_DDOT":0},{"OBJECT_NAME":"POLAR","OBJECT_ID":"1996-013A","EPOCH":"2026-03-27T09:26:21.506208","MEAN_MOTION":1.29845742,"ECCENTRICITY":0.6387624,"INCLINATION":79.7729,"RA_OF_ASC_NODE":227.9913,"ARG_OF_PERICENTER":211.863,"MEAN_ANOMALY":85.0529,"EPHEMERIS_TYPE":0,"CLASSIFICATION_TYPE":"U","NORAD_CAT_ID":23802,"ELEMENT_SET_NO":999,"REV_AT_EPOCH":14379,"BSTAR":0,"MEAN_MOTION_DOT":1.33e-6,"MEAN_MOTION_DDOT":0},{"OBJECT_NAME":"SWAS","OBJECT_ID":"1998-071A","EPOCH":"2026-03-28T08:40:05.745504","MEAN_MOTION":15.09015523,"ECCENTRICITY":0.00056126,"INCLINATION":69.8945,"RA_OF_ASC_NODE":75.8625,"ARG_OF_PERICENTER":344.6117,"MEAN_ANOMALY":15.4875,"EPHEMERIS_TYPE":0,"CLASSIFICATION_TYPE":"U","NORAD_CAT_ID":25560,"ELEMENT_SET_NO":999,"REV_AT_EPOCH":48507,"BSTAR":0.00024219142,"MEAN_MOTION_DOT":3.737e-5,"MEAN_MOTION_DDOT":0},{"OBJECT_NAME":"CXO","OBJECT_ID":"1999-040B","EPOCH":"2026-03-31T01:01:00.181344","MEAN_MOTION":0.37810947,"ECCENTRICITY":0.7963177,"INCLINATION":54.9448,"RA_OF_ASC_NODE":118.9145,"ARG_OF_PERICENTER":310.7103,"MEAN_ANOMALY":0.1107,"EPHEMERIS_TYPE":0,"CLASSIFICATION_TYPE":"U","NORAD_CAT_ID":25867,"ELEMENT_SET_NO":999,"REV_AT_EPOCH":1702,"BSTAR":0,"MEAN_MOTION_DOT":7.8e-6,"MEAN_MOTION_DDOT":0},{"OBJECT_NAME":"XMM-NEWTON","OBJECT_ID":"1999-066A","EPOCH":"2026-03-28T13:41:28.915584","MEAN_MOTION":0.50130084,"ECCENTRICITY":0.47017225,"INCLINATION":64.8899,"RA_OF_ASC_NODE":284.0244,"ARG_OF_PERICENTER":66.3715,"MEAN_ANOMALY":0.0623,"EPHEMERIS_TYPE":0,"CLASSIFICATION_TYPE":"U","NORAD_CAT_ID":25989,"ELEMENT_SET_NO":999,"REV_AT_EPOCH":2260,"BSTAR":0,"MEAN_MOTION_DOT":5.8e-7,"MEAN_MOTION_DDOT":0},{"OBJECT_NAME":"TERRA","OBJECT_ID":"1999-068A","EPOCH":"2026-03-28T15:16:30.863712","MEAN_MOTION":14.61034278,"ECCENTRICITY":0.0003569,"INCLINATION":97.9553,"RA_OF_ASC_NODE":140.3437,"ARG_OF_PERICENTER":111.9893,"MEAN_ANOMALY":49.4323,"EPHEMERIS_TYPE":0,"CLASSIFICATION_TYPE":"U","NORAD_CAT_ID":25994,"ELEMENT_SET_NO":999,"REV_AT_EPOCH":39784,"BSTAR":9.7815553e-5,"MEAN_MOTION_DOT":4.36e-6,"MEAN_MOTION_DDOT":0},{"OBJECT_NAME":"CLUSTER II-FM7 (SAMBA)","OBJECT_ID":"2000-041A","EPOCH":"2026-03-28T19:19:19.986816","MEAN_MOTION":0.4480834,"ECCENTRICITY":0.89502421,"INCLINATION":149.3509,"RA_OF_ASC_NODE":37.9375,"ARG_OF_PERICENTER":254.2071,"MEAN_ANOMALY":0.2686,"EPHEMERIS_TYPE":0,"CLASSIFICATION_TYPE":"U","NORAD_CAT_ID":26410,"ELEMENT_SET_NO":999,"REV_AT_EPOCH":1994,"BSTAR":0,"MEAN_MOTION_DOT":2.77e-5,"MEAN_MOTION_DDOT":0},{"OBJECT_NAME":"CLUSTER II-FM8 (TANGO)","OBJECT_ID":"2000-045B","EPOCH":"2026-03-30T14:32:02.518080","MEAN_MOTION":0.44399863,"ECCENTRICITY":0.89567511,"INCLINATION":149.641,"RA_OF_ASC_NODE":39.0046,"ARG_OF_PERICENTER":255.1525,"MEAN_ANOMALY":0.3931,"EPHEMERIS_TYPE":0,"CLASSIFICATION_TYPE":"U","NORAD_CAT_ID":26464,"ELEMENT_SET_NO":999,"REV_AT_EPOCH":1995,"BSTAR":0,"MEAN_MOTION_DOT":2.56e-5,"MEAN_MOTION_DDOT":0},{"OBJECT_NAME":"ODIN","OBJECT_ID":"2001-007A","EPOCH":"2026-03-28T14:10:55.720416","MEAN_MOTION":15.60452712,"ECCENTRICITY":0.00050344,"INCLINATION":97.4038,"RA_OF_ASC_NODE":124.4339,"ARG_OF_PERICENTER":100.4616,"MEAN_ANOMALY":259.7208,"EPHEMERIS_TYPE":0,"CLASSIFICATION_TYPE":"U","NORAD_CAT_ID":26702,"ELEMENT_SET_NO":999,"REV_AT_EPOCH":37678,"BSTAR":0.00066584956,"MEAN_MOTION_DOT":0.00054911,"MEAN_MOTION_DDOT":0},{"OBJECT_NAME":"TIMED","OBJECT_ID":"2001-055B","EPOCH":"2026-03-28T13:59:41.776224","MEAN_MOTION":14.95083804,"ECCENTRICITY":0.00027733,"INCLINATION":74.0688,"RA_OF_ASC_NODE":37.2897,"ARG_OF_PERICENTER":251.5104,"MEAN_ANOMALY":108.5779,"EPHEMERIS_TYPE":0,"CLASSIFICATION_TYPE":"U","NORAD_CAT_ID":26998,"ELEMENT_SET_NO":999,"REV_AT_EPOCH":31877,"BSTAR":0.00015647669,"MEAN_MOTION_DOT":1.676e-5,"MEAN_MOTION_DDOT":0},{"OBJECT_NAME":"CORIOLIS","OBJECT_ID":"2003-001A","EPOCH":"2026-03-28T14:01:53.459328","MEAN_MOTION":14.19919968,"ECCENTRICITY":0.00151615,"INCLINATION":98.7159,"RA_OF_ASC_NODE":95.6925,"ARG_OF_PERICENTER":85.7052,"MEAN_ANOMALY":274.5857,"EPHEMERIS_TYPE":0,"CLASSIFICATION_TYPE":"U","NORAD_CAT_ID":27640,"ELEMENT_SET_NO":999,"REV_AT_EPOCH":20278,"BSTAR":8.7564724e-5,"MEAN_MOTION_DOT":1.43e-6,"MEAN_MOTION_DDOT":0},{"OBJECT_NAME":"SORCE","OBJECT_ID":"2003-004A","EPOCH":"2026-03-28T04:03:09.482400","MEAN_MOTION":15.0323487,"ECCENTRICITY":0.00174026,"INCLINATION":39.9926,"RA_OF_ASC_NODE":3.7575,"ARG_OF_PERICENTER":195.1511,"MEAN_ANOMALY":164.8763,"EPHEMERIS_TYPE":0,"CLASSIFICATION_TYPE":"U","NORAD_CAT_ID":27651,"ELEMENT_SET_NO":999,"REV_AT_EPOCH":25970,"BSTAR":0.00026754055,"MEAN_MOTION_DOT":3.548e-5,"MEAN_MOTION_DDOT":0},{"OBJECT_NAME":"MOST","OBJECT_ID":"2003-031D","EPOCH":"2026-03-28T12:52:06.047904","MEAN_MOTION":14.21304285,"ECCENTRICITY":0.00108187,"INCLINATION":98.708,"RA_OF_ASC_NODE":96.379,"ARG_OF_PERICENTER":122.115,"MEAN_ANOMALY":238.1079,"EPHEMERIS_TYPE":0,"CLASSIFICATION_TYPE":"U","NORAD_CAT_ID":27843,"ELEMENT_SET_NO":999,"REV_AT_EPOCH":17925,"BSTAR":6.7195505e-5,"MEAN_MOTION_DOT":1.03e-6,"MEAN_MOTION_DDOT":0},{"OBJECT_NAME":"SCISAT 1","OBJECT_ID":"2003-036A","EPOCH":"2026-03-28T09:21:51.107904","MEAN_MOTION":14.81346723,"ECCENTRICITY":0.0006154,"INCLINATION":73.9313,"RA_OF_ASC_NODE":331.8684,"ARG_OF_PERICENTER":48.6564,"MEAN_ANOMALY":311.5141,"EPHEMERIS_TYPE":0,"CLASSIFICATION_TYPE":"U","NORAD_CAT_ID":27858,"ELEMENT_SET_NO":999,"REV_AT_EPOCH":21948,"BSTAR":0.0001038365,"MEAN_MOTION_DOT":7.75e-6,"MEAN_MOTION_DDOT":0},{"OBJECT_NAME":"SWIFT","OBJECT_ID":"2004-047A","EPOCH":"2026-03-28T05:11:07.731744","MEAN_MOTION":15.6097486,"ECCENTRICITY":0.00031449,"INCLINATION":20.5537,"RA_OF_ASC_NODE":86.0328,"ARG_OF_PERICENTER":260.3075,"MEAN_ANOMALY":99.7015,"EPHEMERIS_TYPE":0,"CLASSIFICATION_TYPE":"U","NORAD_CAT_ID":28485,"ELEMENT_SET_NO":999,"REV_AT_EPOCH":17416,"BSTAR":0.00057307482,"MEAN_MOTION_DOT":0.00051322,"MEAN_MOTION_DDOT":0},{"OBJECT_NAME":"HINODE (SOLAR-B)","OBJECT_ID":"2006-041A","EPOCH":"2026-03-28T13:58:16.361184","MEAN_MOTION":14.68503399,"ECCENTRICITY":0.00175265,"INCLINATION":98.0608,"RA_OF_ASC_NODE":104.9096,"ARG_OF_PERICENTER":179.2725,"MEAN_ANOMALY":180.8509,"EPHEMERIS_TYPE":0,"CLASSIFICATION_TYPE":"U","NORAD_CAT_ID":29479,"ELEMENT_SET_NO":999,"REV_AT_EPOCH":4304,"BSTAR":0.00013698565,"MEAN_MOTION_DOT":7.47e-6,"MEAN_MOTION_DDOT":0},{"OBJECT_NAME":"SHIJIAN-6 02A (SJ-6 02A)","OBJECT_ID":"2006-046A","EPOCH":"2026-03-28T14:10:41.771136","MEAN_MOTION":15.1597601,"ECCENTRICITY":0.00045416,"INCLINATION":97.6465,"RA_OF_ASC_NODE":128.0711,"ARG_OF_PERICENTER":70.6841,"MEAN_ANOMALY":289.4882,"EPHEMERIS_TYPE":0,"CLASSIFICATION_TYPE":"U","NORAD_CAT_ID":29505,"ELEMENT_SET_NO":999,"REV_AT_EPOCH":6005,"BSTAR":0.00046835413,"MEAN_MOTION_DOT":8.927e-5,"MEAN_MOTION_DDOT":0}]
